GPS BIII-2  (PRN 18)    
1 44506U 19056A   21329.58051685 -.00000073  00000+0  00000+0 0  9994
2 44506  55.5757  37.1706 0020743 181.9770 313.9286  2.00568086 16686
